$$SOE
2459580.500000000, A.D. 2022-Jan-01 00:00:00.0000, -2.734091708143392E+08, -3.755165947496696E+08, 7.842159532515129E+07,
2459587.500000000, A.D. 2022-Jan-08 00:00:00.0000, -2.652475098321983E+08, -3.806460296430750E+08, 7.966936347975139E+07,
2459594.500000000, A.D. 2022-Jan-15 00:00:00.0000, -2.569624421788372E+08, -3.855983087338499E+08, 8.088005316885789E+07,
2459601.500000000, A.D. 2022-Jan-22 00:00:00.0000, -2.485575454884282E+08, -3.903707174643185E+08, 8.205301431881595E+07,
2459608.500000000, A.D. 2022-Jan-29 00:00:00.0000, -2.400364560823535E+08, -3.949605897023538E+08, 8.318760726393458E+07,
2459615.500000000, A.D. 2022-Feb-05 00:00:00.0000, -2.314028712975686E+08, -3.993653093747932E+08, 8.428320310335088E+07,
2459622.500000000, A.D. 2022-Feb-12 00:00:00.0000, -2.226605496411067E+08, -4.035823132171288E+08, 8.533918378306612E+07,
2459629.500000000, A.D. 2022-Feb-19 00:00:00.0000, -2.138133100941728E+08, -4.076090922722776E+08, 8.635494221885569E+07,
2459636.500000000, A.D. 2022-Feb-26 00:00:00.0000, -2.048650318753147E+08, -4.114431928623145E+08, 8.732988252146220E+07,
2459643.500000000, A.D. 2022-Mar-05 00:00:00.0000, -1.958196545010127E+08, -4.150822176508343E+08, 8.826342025901107E+07,
2459650.500000000, A.D. 2022-Mar-12 00:00:00.0000, -1.866811779192495E+08, -4.185238268627365E+08, 8.915498273087072E+07,
2459657.500000000, A.D. 2022-Mar-19 00:00:00.0000, -1.774536626425194E+08, -4.217657396348227E+08, 9.000400924884632E+07,
2459664.500000000, A.D. 2022-Mar-26 00:00:00.0000, -1.681412298558303E+08, -4.248057355044602E+08, 9.080995142345931E+07,
2459671.500000000, A.D. 2022-Apr-02 00:00:00.0000, -1.587480614300632E+08, -4.276416560927194E+08, 9.157227344471355E+07,
2459678.500000000, A.D. 2022-Apr-09 00:00:00.0000, -1.492783995664093E+08, -4.302714069767920E+08, 9.229045233260880E+07,
2459685.500000000, A.D. 2022-Apr-16 00:00:00.0000, -1.397365457116435E+08, -4.326929590968058E+08, 9.296397817755000E+07,
2459692.500000000, A.D. 2022-Apr-23 00:00:00.0000, -1.301268600089987E+08, -4.349043486120650E+08, 9.359235457495080E+07,
2459699.500000000, A.D. 2022-Apr-30 00:00:00.0000, -1.204537631498387E+08, -4.369036774521576E+08, 9.417509924158019E+07,
2459706.500000000, A.D. 2022-May-07 00:00:00.0000, -1.107217375586945E+08, -4.386891165387509E+08, 9.471174437181279E+07,
2459713.500000000, A.D. 2022-May-14 00:00:00.0000, -1.009353265192920E+08, -4.402589086432687E+08, 9.520183685591663E+07,
2459720.500000000, A.D. 2022-May-21 00:00:00.0000, -9.109913327074674E+07, -4.416113701237347E+08, 9.564493860986277E+07,
2459727.500000000, A.D. 2022-May-28 00:00:00.0000, -8.121782055065812E+07, -4.427448924998595E+08, 9.604062698275016E+07,
2459734.500000000, A.D. 2022-Jun-04 00:00:00.0000, -7.129611030524644E+07, -4.436579441784158E+08, 9.638849519079958E+07,
2459741.500000000, A.D. 2022-Jun-11 00:00:00.0000, -6.133878341821580E+07, -4.443490723254229E+08, 9.668815276435986E+07,
2459748.500000000, A.D. 2022-Jun-18 00:00:00.0000, -5.135067941516433E+07, -4.448169048706256E+08, 9.693922600492501E+07,
2459755.500000000, A.D. 2022-Jun-25 00:00:00.0000, -4.133669610916022E+07, -4.450601526766558E+08, 9.714135844646564E+07,
2459762.500000000, A.D. 2022-Jul-02 00:00:00.0000, -3.130178904845278E+07, -4.450776119382144E+08, 9.729421130344754E+07,
2459769.500000000, A.D. 2022-Jul-09 00:00:00.0000, -2.125097037116232E+07, -4.448681666340810E+08, 9.739746388446699E+07,
2459776.500000000, A.D. 2022-Jul-16 00:00:00.0000, -1.118930711744751E+07, -4.444307899488629E+08, 9.745081406539908E+07,
2459783.500000000, A.D. 2022-Jul-23 00:00:00.0000, -1.121921192986854E+06, -4.437645445858127E+08, 9.745397903019023E+07,
2459790.500000000, A.D. 2022-Jul-30 00:00:00.0000, 8.946009105442781E+06, -4.428685853230935E+08, 9.740669599734306E+07,
2459797.500000000, A.D. 2022-Aug-06 00:00:00.0000, 1.900924960660764E+07, -4.417421631647024E+08, 9.730872265518947E+07,
2459804.500000000, A.D. 2022-Aug-13 00:00:00.0000, 2.906251200545149E+07, -4.403846283314254E+08, 9.715983760714772E+07,
2459811.500000000, A.D. 2022-Aug-20 00:00:00.0000, 3.910045526299411E+07, -4.387954325940591E+08, 9.695984093004689E+07,
2459818.500000000, A.D. 2022-Aug-27 00:00:00.0000, 4.911768673844489E+07, -4.369741316734618E+08, 9.670855477979612E+07,
2459825.500000000, A.D. 2022-Sep-03 00:00:00.0000, 5.910876330648323E+07, -4.349203878154440E+08, 9.640582401225211E+07,
2459832.500000000, A.D. 2022-Sep-10 00:00:00.0000, 6.906819255510019E+07, -4.326339725135468E+08, 9.605151681232296E+07,
2459839.500000000, A.D. 2022-Sep-17 00:00:00.0000, 7.899043409918061E+07, -4.301147693780567E+08, 9.564552532762790E+07,
2459846.500000000, A.D. 2022-Sep-24 00:00:00.0000, 8.886990107646380E+07, -4.273627771988000E+08, 9.518776629624604E+07,
2459853.500000000, A.D. 2022-Oct-01 00:00:00.0000, 9.870096207209948E+07, -4.243781132209058E+08, 9.467818164414887E+07,
2459860.500000000, A.D. 2022-Oct-08 00:00:00.0000, 1.084779438849820E+08, -4.211610161083521E+08, 9.411673905708070E+07,
2459867.500000000, A.D. 2022-Oct-15 00:00:00.0000, 1.181951342094030E+08, -4.177118473923733E+08, 9.350343270951159E+07,
2459874.500000000, A.D. 2022-Oct-22 00:00:00.0000, 1.278467820556049E+08, -4.140310930833535E+08, 9.283828421162306E+07,
2459881.500000000, A.D. 2022-Oct-29 00:00:00.0000, 1.374270984131162E+08, -4.101193680333626E+08, 9.212134333137169E+07,
2459888.500000000, A.D. 2022-Nov-05 00:00:00.0000, 1.469302592630215E+08, -4.059774203027731E+08, 9.135268852179199E+07,
2459895.500000000, A.D. 2022-Nov-12 00:00:00.0000, 1.563504089806592E+08, -4.016061342587651E+08, 9.053242753640237E+07,
2459902.500000000, A.D. 2022-Nov-19 00:00:00.0000, 1.656816634151335E+08, -3.970065333541218E+08, 8.966069811962228E+07,
2459909.500000000, A.D. 2022-Nov-26 00:00:00.0000, 1.749181129133213E+08, -3.921797829772997E+08, 8.873766871442471E+07,
2459916.500000000, A.D. 2022-Dec-03 00:00:00.0000, 1.840538254592909E+08, -3.871271933784564E+08, 8.776353916964546E+07,
2459923.500000000, A.D. 2022-Dec-10 00:00:00.0000, 1.930828499786808E+08, -3.818502226449652E+08, 8.673854144245908E+07,
2459930.500000000, A.D. 2022-Dec-17 00:00:00.0000, 2.019992198361352E+08, -3.763504797420875E+08, 8.566294028917488E+07,
2459937.500000000, A.D. 2022-Dec-24 00:00:00.0000, 2.107969566388246E+08, -3.706297276736936E+08, 8.453703392588553E+07,
2459944.500000000, A.D. 2022-Dec-31 00:00:00.0000, 2.194700747083960E+08, -3.646898866439479E+08, 8.336115463207665E+07,
2459951.500000000, A.D. 2023-Jan-07 00:00:00.0000, 2.280125863496160E+08, -3.585330362466843E+08, 8.213566936244246E+07,
2459958.500000000, A.D. 2023-Jan-14 00:00:00.0000, 2.364185059537630E+08, -3.521614161756085E+08, 8.086098058629045E+07,
2459965.500000000, A.D. 2023-Jan-21 00:00:00.0000, 2.446818522957270E+08, -3.455774286172113E+08, 7.953752715246028E+07,
2459972.500000000, A.D. 2023-Jan-28 00:00:00.0000, 2.527966526960478E+08, -3.387836425103417E+08, 7.816578482523598E+07,
2459979.500000000, A.D. 2023-Feb-04 00:00:00.0000, 2.607569488421214E+08, -3.317827966336994E+08, 7.674626675598015E+07,
2459986.500000000, A.D. 2023-Feb-11 00:00:00.0000, 2.685568024746692E+08, -3.245778017033213E+08, 7.527952403715035E+07,
2459993.500000000, A.D. 2023-Feb-18 00:00:00.0000, 2.761903008764520E+08, -3.171717422901869E+08, 7.376614627441096E+07,
2460000.500000000, A.D. 2023-Feb-25 00:00:00.0000, 2.836515624257478E+08, -3.095678787055624E+08, 7.220676213640438E+07,
2460007.500000000, A.D. 2023-Mar-04 00:00:00.0000, 2.909347423159577E+08, -3.017696488205456E+08, 7.060203987115113E+07,
2460014.500000000, A.D. 2023-Mar-11 00:00:00.0000, 2.980340384682090E+08, -2.937806698041589E+08, 6.895268778318907E+07,
2460021.500000000, A.D. 2023-Mar-18 00:00:00.0000, 3.049436976810786E+08, -2.856047398136120E+08, 6.725945465951291E+07,
2460028.500000000, A.D. 2023-Mar-25 00:00:00.0000, 3.116580222170684E+08, -2.772458396670873E+08, 6.552313011807076E+07,
2460035.500000000, A.D. 2023-Apr-01 00:00:00.0000, 3.181713772468460E+08, -2.687081340886800E+08, 6.374454486873380E+07,
2460042.500000000, A.D. 2023-Apr-08 00:00:00.0000, 3.244781985320541E+08, -2.599959712851191E+08, 6.192457104066804E+07,
2460049.500000000, A.D. 2023-Apr-15 00:00:00.0000, 3.305729980032409E+08, -2.511138819459339E+08, 6.006412269706091E+07,
2460056.500000000, A.D. 2023-Apr-22 00:00:00.0000, 3.364503690324698E+08, -2.420665807024285E+08, 5.816415611762054E+07,
2460063.500000000, A.D. 2023-Apr-29 00:00:00.0000, 3.421049941257567E+08, -2.328589677745665E+08, 5.622566977781979E+07,
2460070.500000000, A.D. 2023-May-06 00:00:00.0000, 3.475316532654181E+08, -2.234961290078909E+08, 5.424970432831306E+07,
2460077.500000000, A.D. 2023-May-13 00:00:00.0000, 3.527252319143264E+08, -2.139833351782108E+08, 5.223734258755639E+07,
2460084.500000000, A.D. 2023-May-20 00:00:00.0000, 3.576807289031956E+08, -2.043260410394435E+08, 5.018970948227844E+07,
2460091.500000000, A.D. 2023-May-27 00:00:00.0000, 3.623932643799029E+08, -1.945298841285537E+08, 4.810797191186164E+07,
2460098.500000000, A.D. 2023-Jun-03 00:00:00.0000, 3.668580878626273E+08, -1.846006832866539E+08, 4.599333852975816E+07,
2460105.500000000, A.D. 2023-Jun-10 00:00:00.0000, 3.710705864032282E+08, -1.745444368958939E+08, 4.384705943498091E+07,
2460112.500000000, A.D. 2023-Jun-17 00:00:00.0000, 3.750262929304335E+08, -1.643673208788261E+08, 4.167042575684914E+07,
2460119.500000000, A.D. 2023-Jun-24 00:00:00.0000, 3.787208950711432E+08, -1.540756863910229E+08, 3.946476910432688E+07,
2460126.500000000, A.D. 2023-Jul-01 00:00:00.0000, 3.821502446811796E+08, -1.436760563650126E+08, 3.723146092119050E+07,
2460133.500000000, A.D. 2023-Jul-08 00:00:00.0000, 3.853103663912219E+08, -1.331751200724553E+08, 3.497191196574220E+07,
2460140.500000000, A.D. 2023-Jul-15 00:00:00.0000, 3.881974638684121E+08, -1.225797285269934E+08, 3.268757179883095E+07,
2460147.500000000, A.D. 2023-Jul-22 00:00:00.0000, 3.908079272874451E+08, -1.118968917542029E+08, 3.037992786976906E+07,
$$EOE